CSS (TIANHE)            
1 48274U 21035A   23225.71946654  .00013370  00000+0  16098-3 0  9992
2 48274  41.4732 166.2122 0007831 147.1047 213.0281 15.60544113130822
